CCSDS_OMM_VERS = 2.0
CREATION_DATE  = 
ORIGINATOR     = 

OBJECT_NAME    = UNKNOWN
OBJECT_ID      = 
CENTER_NAME    = EARTH
REF_FRAME      = TEME
TIME_SYSTEM    = UTC
MEAN_ELEMENT_THEORY = SGP/SGP4

EPOCH          = 2026-03-30T23:07:18.883200
MEAN_MOTION    = 14.56720039
ECCENTRICITY   = .0131591
INCLINATION    = 98.7122
RA_OF_ASC_NODE = 157.2576
ARG_OF_PERICENTER = 153.4071
MEAN_ANOMALY   = 19.5197

EPHEMERIS_TYPE = 0
CLASSIFICATION_TYPE = U
NORAD_CAT_ID   = 81311
ELEMENT_SET_NO = 999
REV_AT_EPOCH   = 65534
BSTAR          = .21133E-3
MEAN_MOTION_DOT = .1005E-4
MEAN_MOTION_DDOT = 0

CCSDS_OMM_VERS = 2.0
CREATION_DATE  = 
ORIGINATOR     = 

OBJECT_NAME    = UNKNOWN
OBJECT_ID      = 
CENTER_NAME    = EARTH
REF_FRAME      = TEME
TIME_SYSTEM    = UTC
MEAN_ELEMENT_THEORY = SGP/SGP4

EPOCH          = 2026-03-27T21:35:47.163552
MEAN_MOTION    = 13.38058486
ECCENTRICITY   = .0216764
INCLINATION    = 67.1376
RA_OF_ASC_NODE = 305.0674
ARG_OF_PERICENTER = 321.0643
MEAN_ANOMALY   = 51.7514

EPHEMERIS_TYPE = 0
CLASSIFICATION_TYPE = U
NORAD_CAT_ID   = 81317
ELEMENT_SET_NO = 999
REV_AT_EPOCH   = 60270
BSTAR          = .23068E-3
MEAN_MOTION_DOT = .75E-6
MEAN_MOTION_DDOT = 0

CCSDS_OMM_VERS = 2.0
CREATION_DATE  = 
ORIGINATOR     = 

OBJECT_NAME    = UNKNOWN
OBJECT_ID      = 
CENTER_NAME    = EARTH
REF_FRAME      = TEME
TIME_SYSTEM    = UTC
MEAN_ELEMENT_THEORY = SGP/SGP4

EPOCH          = 2026-03-31T16:35:04.702560
MEAN_MOTION    = 14.51029105
ECCENTRICITY   = .0333399
INCLINATION    = 65.7488
RA_OF_ASC_NODE = 82.9499
ARG_OF_PERICENTER = 256.5874
MEAN_ANOMALY   = 99.7869

EPHEMERIS_TYPE = 0
CLASSIFICATION_TYPE = U
NORAD_CAT_ID   = 81323
ELEMENT_SET_NO = 999
REV_AT_EPOCH   = 12884
BSTAR          = .20354E-2
MEAN_MOTION_DOT = .16652E-3
MEAN_MOTION_DDOT = 0

CCSDS_OMM_VERS = 2.0
CREATION_DATE  = 
ORIGINATOR     = 

OBJECT_NAME    = UNKNOWN
OBJECT_ID      = 
CENTER_NAME    = EARTH
REF_FRAME      = TEME
TIME_SYSTEM    = UTC
MEAN_ELEMENT_THEORY = SGP/SGP4

EPOCH          = 2026-03-26T10:42:39.826656
MEAN_MOTION    = 13.22777555
ECCENTRICITY   = .0836355
INCLINATION    = 65.8185
RA_OF_ASC_NODE = 252.8345
ARG_OF_PERICENTER = 343.0357
MEAN_ANOMALY   = 14.4185

EPHEMERIS_TYPE = 0
CLASSIFICATION_TYPE = U
NORAD_CAT_ID   = 81329
ELEMENT_SET_NO = 999
REV_AT_EPOCH   = 59179
BSTAR          = .2944E-3
MEAN_MOTION_DOT = .769E-5
MEAN_MOTION_DDOT = 0

CCSDS_OMM_VERS = 2.0
CREATION_DATE  = 
ORIGINATOR     = 

OBJECT_NAME    = UNKNOWN
OBJECT_ID      = 
CENTER_NAME    = EARTH
REF_FRAME      = TEME
TIME_SYSTEM    = UTC
MEAN_ELEMENT_THEORY = SGP/SGP4

EPOCH          = 2026-04-01T04:03:12.467520
MEAN_MOTION    = 15.05530775
ECCENTRICITY   = .0008236
INCLINATION    = 85.8742
RA_OF_ASC_NODE = 140.8231
ARG_OF_PERICENTER = 207.0055
MEAN_ANOMALY   = 153.0752

EPHEMERIS_TYPE = 0
CLASSIFICATION_TYPE = U
NORAD_CAT_ID   = 81343
ELEMENT_SET_NO = 999
REV_AT_EPOCH   = 47077
BSTAR          = .3328E-3
MEAN_MOTION_DOT = .4822E-4
MEAN_MOTION_DDOT = 0

CCSDS_OMM_VERS = 2.0
CREATION_DATE  = 
ORIGINATOR     = 

OBJECT_NAME    = UNKNOWN
OBJECT_ID      = 
CENTER_NAME    = EARTH
REF_FRAME      = TEME
TIME_SYSTEM    = UTC
MEAN_ELEMENT_THEORY = SGP/SGP4

EPOCH          = 2026-03-31T21:50:01.487616
MEAN_MOTION    = 13.79018790
ECCENTRICITY   = .0120626
INCLINATION    = 66.7969
RA_OF_ASC_NODE = 150.6561
ARG_OF_PERICENTER = 253.1138
MEAN_ANOMALY   = 105.6680

EPHEMERIS_TYPE = 0
CLASSIFICATION_TYPE = U
NORAD_CAT_ID   = 81359
ELEMENT_SET_NO = 999
REV_AT_EPOCH   = 62053
BSTAR          = .69533E-3
MEAN_MOTION_DOT = .676E-5
MEAN_MOTION_DDOT = 0

CCSDS_OMM_VERS = 2.0
CREATION_DATE  = 
ORIGINATOR     = 

OBJECT_NAME    = UNKNOWN
OBJECT_ID      = 
CENTER_NAME    = EARTH
REF_FRAME      = TEME
TIME_SYSTEM    = UTC
MEAN_ELEMENT_THEORY = SGP/SGP4

EPOCH          = 2026-03-27T12:49:22.537632
MEAN_MOTION    = 13.45413471
ECCENTRICITY   = .0713881
INCLINATION    = 65.8825
RA_OF_ASC_NODE = 183.9701
ARG_OF_PERICENTER = 30.5600
MEAN_ANOMALY   = 333.5089

EPHEMERIS_TYPE = 0
CLASSIFICATION_TYPE = U
NORAD_CAT_ID   = 81366
ELEMENT_SET_NO = 999
REV_AT_EPOCH   = 8005
BSTAR          = .21477E-3
MEAN_MOTION_DOT = .53E-5
MEAN_MOTION_DDOT = 0

CCSDS_OMM_VERS = 2.0
CREATION_DATE  = 
ORIGINATOR     = 

OBJECT_NAME    = UNKNOWN
OBJECT_ID      = 
CENTER_NAME    = EARTH
REF_FRAME      = TEME
TIME_SYSTEM    = UTC
MEAN_ELEMENT_THEORY = SGP/SGP4

EPOCH          = 2026-03-31T18:11:31.355520
MEAN_MOTION    = 14.71337529
ECCENTRICITY   = .0068887
INCLINATION    = 98.8116
RA_OF_ASC_NODE = 201.0034
ARG_OF_PERICENTER = 25.7041
MEAN_ANOMALY   = 334.7561

EPHEMERIS_TYPE = 0
CLASSIFICATION_TYPE = U
NORAD_CAT_ID   = 81371
ELEMENT_SET_NO = 999
REV_AT_EPOCH   = 65786
BSTAR          = .66646E-3
MEAN_MOTION_DOT = .4216E-4
MEAN_MOTION_DDOT = 0

CCSDS_OMM_VERS = 2.0
CREATION_DATE  = 
ORIGINATOR     = 

OBJECT_NAME    = UNKNOWN
OBJECT_ID      = 
CENTER_NAME    = EARTH
REF_FRAME      = TEME
TIME_SYSTEM    = UTC
MEAN_ELEMENT_THEORY = SGP/SGP4

EPOCH          = 2026-03-27T09:40:41.095488
MEAN_MOTION    = 14.37509397
ECCENTRICITY   = .0091473
INCLINATION    = 71.0460
RA_OF_ASC_NODE = 129.2323
ARG_OF_PERICENTER = 278.6144
MEAN_ANOMALY   = 80.4635

EPHEMERIS_TYPE = 0
CLASSIFICATION_TYPE = U
NORAD_CAT_ID   = 81386
ELEMENT_SET_NO = 999
REV_AT_EPOCH   = 63927
BSTAR          = .12632E-2
MEAN_MOTION_DOT = .3923E-4
MEAN_MOTION_DDOT = 0

CCSDS_OMM_VERS = 2.0
CREATION_DATE  = 
ORIGINATOR     = 

OBJECT_NAME    = UNKNOWN
OBJECT_ID      = 
CENTER_NAME    = EARTH
REF_FRAME      = TEME
TIME_SYSTEM    = UTC
MEAN_ELEMENT_THEORY = SGP/SGP4

EPOCH          = 2026-04-01T10:35:01.107456
MEAN_MOTION    = 12.35608531
ECCENTRICITY   = .0175687
INCLINATION    = 103.1051
RA_OF_ASC_NODE = 352.4570
ARG_OF_PERICENTER = 314.0589
MEAN_ANOMALY   = 44.6114

EPHEMERIS_TYPE = 0
CLASSIFICATION_TYPE = U
NORAD_CAT_ID   = 81390
ELEMENT_SET_NO = 999
REV_AT_EPOCH   = 51364
BSTAR          = -.25854E-2
MEAN_MOTION_DOT = -.395E-5
MEAN_MOTION_DDOT = 0

CCSDS_OMM_VERS = 2.0
CREATION_DATE  = 
ORIGINATOR     = 

OBJECT_NAME    = UNKNOWN
OBJECT_ID      = 
CENTER_NAME    = EARTH
REF_FRAME      = TEME
TIME_SYSTEM    = UTC
MEAN_ELEMENT_THEORY = SGP/SGP4

EPOCH          = 2026-03-30T19:14:16.705536
MEAN_MOTION    = 13.82434088
ECCENTRICITY   = .0042137
INCLINATION    = 100.4064
RA_OF_ASC_NODE = 94.0474
ARG_OF_PERICENTER = 116.4095
MEAN_ANOMALY   = 60.6828

EPHEMERIS_TYPE = 0
CLASSIFICATION_TYPE = U
NORAD_CAT_ID   = 81392
ELEMENT_SET_NO = 999
REV_AT_EPOCH   = 61710
BSTAR          = .32469E-2
MEAN_MOTION_DOT = .3487E-4
MEAN_MOTION_DDOT = 0

CCSDS_OMM_VERS = 2.0
CREATION_DATE  = 
ORIGINATOR     = 

OBJECT_NAME    = UNKNOWN
OBJECT_ID      = 
CENTER_NAME    = EARTH
REF_FRAME      = TEME
TIME_SYSTEM    = UTC
MEAN_ELEMENT_THEORY = SGP/SGP4

EPOCH          = 2026-03-14T21:31:57.222912
MEAN_MOTION    = 13.89179281
ECCENTRICITY   = .015752
INCLINATION    = 99.4590
RA_OF_ASC_NODE = 128.5260
ARG_OF_PERICENTER = 337.4444
MEAN_ANOMALY   = 21.9841

EPHEMERIS_TYPE = 0
CLASSIFICATION_TYPE = U
NORAD_CAT_ID   = 81405
ELEMENT_SET_NO = 999
REV_AT_EPOCH   = 57459
BSTAR          = .11126E-2
MEAN_MOTION_DOT = .1447E-4
MEAN_MOTION_DDOT = 0

